{"type": "FeatureCollection", "features": [ {"type": "Feature", "properties": {"norad_id": 66990, "name": "TJS-22", "group": "last-30-days", "lat": 0.6449817459747852, "lon": -55.19145201973374, "alt_km": 35774.45211149345, "timestamp": "2025-12-27T09:28:55.186019+00:00", "meta": {"OBJECT_NAME": "TJS-22", "OBJECT_ID": "2025-290A", "EPOCH": "2025-12-26T08:16:12.455904", "MEAN_MOTION": 1.00271724, "ECCENTRICITY": 0.0003377, "INCLINATION": 1.9542, "RA_OF_ASC_NODE": 285.0436, "ARG_OF_PERICENTER": 343.3803, "MEAN_ANOMALY": 17.1692, "EPHEMERIS_TYPE": 0, "CLASSIFICATION_TYPE": "U", "NORAD_CAT_ID": 66990, "ELEMENT_SET_NO": 999, "REV_AT_EPOCH": 29, "BSTAR": 0, "MEAN_MOTION_DOT": 1.6e-07, "MEAN_MOTION_DDOT": 0}, "tle": {"line1": "1 66990U 25290A   25360.34458861  .00000016  00000+0  00000+0 0  9998", "line2": "2 66990   1.9542 285.0436 0003377 343.3803  17.1692  1.00271724   296"}}, "geometry": {"type": "Point", "coordinates": [-55.19145201973374, 0.6449817459747852]}}, {"type": "Feature", "properties": {"norad_id": 66991, "name": "CZ-3B R/B", "group": "last-30-days", "lat": -0.6042105383770932, "lon": -65.26866863296877, "alt_km": 32265.513624477255, "timestamp": "2025-12-27T09:28:55.186032+00:00", "meta": {"OBJECT_NAME": "CZ-3B R/B", "OBJECT_ID": "2025-290B", "EPOCH": "2025-12-15T17:23:33.043200", "MEAN_MOTION": 2.38388611, "ECCENTRICITY": 0.7240884, "INCLINATION": 28.4636, "RA_OF_ASC_NODE": 300.4666, "ARG_OF_PERICENTER": 182.7002, "MEAN_ANOMALY": 168.625, "EPHEMERIS_TYPE": 0, "CLASSIFICATION_TYPE": "U", "NORAD_CAT_ID": 66991, "ELEMENT_SET_NO": 999, "REV_AT_EPOCH": 16, "BSTAR": 0.00075879, "MEAN_MOTION_DOT": 0.00057911, "MEAN_MOTION_DDOT": -2.0514e-07}, "tle": {"line1": "1 66991U 25290B   25349.72468800  .00057911 -20514-6  75879-3 0  9998", "line2": "2 66991  28.4636 300.4666 7240884 182.7002 168.6250  2.38388611   165"}}, "geometry": {"type": "Point", "coordinates": [-65.26866863296877, -0.6042105383770932]}}, {"type": "Feature", "properties": {"norad_id": 66993, "name": "2025-292A", "group": "last-30-days", "lat": 53.99878077396856, "lon": -95.5385043845721, "alt_km": 548.485357743335, "timestamp": "2025-12-27T09:28:55.186045+00:00", "meta": {"OBJECT_NAME": "2025-292A", "OBJECT_ID": "2025-292A", "EPOCH": "2025-12-27T04:08:16.146240", "MEAN_MOTION": 15.04606829, "ECCENTRICITY": 0.0014785, "INCLINATION": 97.6491, "RA_OF_ASC_NODE": 73.5818, "ARG_OF_PERICENTER": 220.7942, "MEAN_ANOMALY": 139.2178, "EPHEMERIS_TYPE": 0, "CLASSIFICATION_TYPE": "U", "NORAD_CAT_ID": 66993, "ELEMENT_SET_NO": 999, "REV_AT_EPOCH": 256, "BSTAR": 0.00038826, "MEAN_MOTION_DOT": 5.403e-05, "MEAN_MOTION_DDOT": 0}, "tle": {"line1": "1 66993U 25292A   25361.17240910  .00005403  00000+0  38826-3 0  9995", "line2": "2 66993  97.6491  73.5818 0014785 220.7942 139.2178 15.04606829  2569"}}, "geometry": {"type": "Point", "coordinates": [-95.5385043845721, 53.99878077396856]}}, {"type": "Feature", "properties": {"norad_id": 66994, "name": "2025-292B", "group": "last-30-days", "lat": 51.24900271542423, "lon": -96.55429526703053, "alt_km": 548.2453470355003, "timestamp": "2025-12-27T09:28:55.186055+00:00", "meta": {"OBJECT_NAME": "2025-292B", "OBJECT_ID": "2025-292B", "EPOCH": "2025-12-26T21:44:28.806144", "MEAN_MOTION": 15.04654531, "ECCENTRICITY": 0.0014552, "INCLINATION": 97.6501, "RA_OF_ASC_NODE": 73.3208, "ARG_OF_PERICENTER": 222.0345, "MEAN_ANOMALY": 137.9766, "EPHEMERIS_TYPE": 0, "CLASSIFICATION_TYPE": "U", "NORAD_CAT_ID": 66994, "ELEMENT_SET_NO": 999, "REV_AT_EPOCH": 252, "BSTAR": 0.00041508, "MEAN_MOTION_DOT": 5.788e-05, "MEAN_MOTION_DDOT": 0}, "tle": {"line1": "1 66994U 25292B   25360.90588896  .00005788  00000+0  41508-3 0  9991", "line2": "2 66994  97.6501  73.3208 0014552 222.0345 137.9766 15.04654531  2524"}}, "geometry": {"type": "Point", "coordinates": [-96.55429526703053, 51.24900271542423]}}, {"type": "Feature", "properties": {"norad_id": 66995, "name": "2025-292C", "group": "last-30-days", "lat": 50.026001210540535, "lon": -96.97071108416426, "alt_km": 548.1462329758406, "timestamp": "2025-12-27T09:28:55.186065+00:00", "meta": {"OBJECT_NAME": "2025-292C", "OBJECT_ID": "2025-292C", "EPOCH": "2025-12-25T05:50:07.257120", "MEAN_MOTION": 15.04668363, "ECCENTRICITY": 0.0014688, "INCLINATION": 97.6495, "RA_OF_ASC_NODE": 71.6733, "ARG_OF_PERICENTER": 227.9665, "MEAN_ANOMALY": 132.0312, "EPHEMERIS_TYPE": 0, "CLASSIFICATION_TYPE": "U", "NORAD_CAT_ID": 66995, "ELEMENT_SET_NO": 999, "REV_AT_EPOCH": 227, "BSTAR": 0.00041226, "MEAN_MOTION_DOT": 5.751e-05, "MEAN_MOTION_DDOT": 0}, "tle": {"line1": "1 66995U 25292C   25359.24313955  .00005751  00000+0  41226-3 0  9996", "line2": "2 66995  97.6495  71.6733 0014688 227.9665 132.0312 15.04668363  2273"}}, "geometry": {"type": "Point", "coordinates": [-96.97071108416426, 50.026001210540535]}}, {"type": "Feature", "properties": {"norad_id": 66996, "name": "2025-292D", "group": "last-30-days", "lat": 48.04873634482092, "lon": -97.5975192989317, "alt_km": 548.4932850509385, "timestamp": "2025-12-27T09:28:55.186075+00:00", "meta": {"OBJECT_NAME": "2025-292D", "OBJECT_ID": "2025-292D", "EPOCH": "2025-12-25T05:49:36.025248", "MEAN_MOTION": 15.04678565, "ECCENTRICITY": 0.0013797, "INCLINATION": 97.6491, "RA_OF_ASC_NODE": 71.6729, "ARG_OF_PERICENTER": 230.5158, "MEAN_ANOMALY": 129.4848, "EPHEMERIS_TYPE": 0, "CLASSIFICATION_TYPE": "U", "NORAD_CAT_ID": 66996, "ELEMENT_SET_NO": 999, "REV_AT_EPOCH": 227, "BSTAR": 0.00027339, "MEAN_MOTION_DOT": 3.792e-05, "MEAN_MOTION_DDOT": 0}, "tle": {"line1": "1 66996U 25292D   25359.24277807  .00003792  00000+0  27339-3 0  9994", "line2": "2 66996  97.6491  71.6729 0013797 230.5158 129.4848 15.04678565  2271"}}, "geometry": {"type": "Point", "coordinates": [-97.5975192989317, 48.04873634482092]}}, {"type": "Feature", "properties": {"norad_id": 66997, "name": "2025-292E", "group": "last-30-days", "lat": 42.89225397669119, "lon": -99.01588896800983, "alt_km": 548.2192117392815, "timestamp": "2025-12-27T09:28:55.186085+00:00", "meta": {"OBJECT_NAME": "2025-292E", "OBJECT_ID": "2025-292E", "EPOCH": "2025-12-27T04:05:17.774304", "MEAN_MOTION": 15.04790888, "ECCENTRICITY": 0.0014364, "INCLINATION": 97.6508, "RA_OF_ASC_NODE": 73.5877, "ARG_OF_PERICENTER": 224.9592, "MEAN_ANOMALY": 135.0472, "EPHEMERIS_TYPE": 0, "CLASSIFICATION_TYPE": "U", "NORAD_CAT_ID": 66997, "ELEMENT_SET_NO": 999, "REV_AT_EPOCH": 255, "BSTAR": 0.00040516, "MEAN_MOTION_DOT": 5.669e-05, "MEAN_MOTION_DDOT": 0}, "tle": {"line1": "1 66997U 25292E   25361.17034461  .00005669  00000+0  40516-3 0  9994", "line2": "2 66997  97.6508  73.5877 0014364 224.9592 135.0472 15.04790888  2556"}}, "geometry": {"type": "Point", "coordinates": [-99.01588896800983, 42.89225397669119]}}, {"type": "Feature", "properties": {"norad_id": 66998, "name": "2025-292F", "group": "last-30-days", "lat": 32.74077175734771, "lon": -101.22166514019813, "alt_km": 547.4342553572724, "timestamp": "2025-12-27T09:28:55.186095+00:00", "meta": {"OBJECT_NAME": "2025-292F", "OBJECT_ID": "2025-292F", "EPOCH": "2025-12-27T04:02:35.763072", "MEAN_MOTION": 15.04980023, "ECCENTRICITY": 0.0015501, "INCLINATION": 97.6528, "RA_OF_ASC_NODE": 73.594, "ARG_OF_PERICENTER": 225.8087, "MEAN_ANOMALY": 134.1867, "EPHEMERIS_TYPE": 0, "CLASSIFICATION_TYPE": "U", "NORAD_CAT_ID": 66998, "ELEMENT_SET_NO": 999, "REV_AT_EPOCH": 256, "BSTAR": 0.00053915, "MEAN_MOTION_DOT": 7.607e-05, "MEAN_MOTION_DDOT": 0}, "tle": {"line1": "1 66998U 25292F   25361.16846948  .00007607  00000+0  53915-3 0  9996", "line2": "2 66998  97.6528  73.5940 0015501 225.8087 134.1867 15.04980023  2564"}}, "geometry": {"type": "Point", "coordinates": [-101.22166514019813, 32.74077175734771]}}, {"type": "Feature", "properties": {"norad_id": 66999, "name": "2025-292G", "group": "last-30-days", "lat": 28.83725097756635, "lon": -101.9316906891207, "alt_km": 547.5924020645143, "timestamp": "2025-12-27T09:28:55.186107+00:00", "meta": {"OBJECT_NAME": "2025-292G", "OBJECT_ID": "2025-292G", "EPOCH": "2025-12-27T04:01:33.731328", "MEAN_MOTION": 15.05044229, "ECCENTRICITY": 0.0015007, "INCLINATION": 97.6537, "RA_OF_ASC_NODE": 73.5968, "ARG_OF_PERICENTER": 227.816, "MEAN_ANOMALY": 132.1792, "EPHEMERIS_TYPE": 0, "CLASSIFICATION_TYPE": "U", "NORAD_CAT_ID": 66999, "ELEMENT_SET_NO": 999, "REV_AT_EPOCH": 256, "BSTAR": 0.00053406, "MEAN_MOTION_DOT": 7.547e-05, "MEAN_MOTION_DDOT": 0}, "tle": {"line1": "1 66999U 25292G   25361.16775152  .00007547  00000+0  53406-3 0  9993", "line2": "2 66999  97.6537  73.5968 0015007 227.8160 132.1792 15.05044229  2565"}}, "geometry": {"type": "Point", "coordinates": [-101.9316906891207, 28.83725097756635]}}, {"type": "Feature", "properties": {"norad_id": 67000, "name": "2025-292H", "group": "last-30-days", "lat": 27.93996982636355, "lon": -102.08414210485412, "alt_km": 547.4469771184822, "timestamp": "2025-12-27T09:28:55.186117+00:00", "meta": {"OBJECT_NAME": "2025-292H", "OBJECT_ID": "2025-292H", "EPOCH": "2025-12-27T04:01:19.788096", "MEAN_MOTION": 15.05081297, "ECCENTRICITY": 0.0014956, "INCLINATION": 97.6551, "RA_OF_ASC_NODE": 73.5997, "ARG_OF_PERICENTER": 227.6808, "MEAN_ANOMALY": 132.3152, "EPHEMERIS_TYPE": 0, "CLASSIFICATION_TYPE": "U", "NORAD_CAT_ID": 67000, "ELEMENT_SET_NO": 999, "REV_AT_EPOCH": 243, "BSTAR": 0.00064634, "MEAN_MOTION_DOT": 9.157e-05, "MEAN_MOTION_DDOT": 0}, "tle": {"line1": "1 67000U 25292H   25361.16759014  .00009157  00000+0  64634-3 0  9990", "line2": "2 67000  97.6551  73.5997 0014956 227.6808 132.3152 15.05081297  2430"}}, "geometry": {"type": "Point", "coordinates": [-102.08414210485412, 27.93996982636355]}}]}